     2.100          NAVIGATION                              RINEX VERSION / TYPE
fic2rin                                 02/03/2013 00:16:59 PGM / RUN BY / DATE
                                                            END OF HEADER
10 13  2  2 19 59 44.0 -.684880651534D-04 -.136424205266D-11  .000000000000D+00
     .110000000000D+02  .730312500000D+02  .486948854803D-08 -.234923585556D+01
     .352039933205D-05  .123063357314D-01  .998936593533D-05  .515376798439D+04
     .590384000000D+06  .154599547386D-06  .172790288975D+01 -.132247805595D-06
     .943820088661D+00  .175000000000D+03  .794881800486D+00 -.807069331963D-08
     .198936857947D-09  .100000000000D+01  .172500000000D+04  .000000000000D+00
     .240000000000D+01  .000000000000D+00 -.232830643654D-08  .110000000000D+02
     .583206000000D+06  .400000000000D+01
22 13  2  2 19 59 44.0  .157407950610D-03  .113686837722D-11  .000000000000D+00
     .300000000000D+01  .768125000000D+02  .534379401904D-08 -.249379230325D+01
     .385008752346D-05  .617609499022D-02  .869482755661D-05  .515366011047D+04
     .590384000000D+06  .894069671631D-07  .171565282337D+01 -.558793544769D-08
     .925348693973D+00  .192375000000D+03 -.203201586100D+01 -.829320258803D-08
     .119647840956D-09  .100000000000D+01  .172500000000D+04  .000000000000D+00
     .240000000000D+01  .000000000000D+00 -.172294676304D-07  .300000000000D+01
     .583206000000D+06  .400000000000D+01
26 13  2  2 19 59 44.0 -.115721020848D-03  .138697942020D-10  .000000000000D+00
     .160000000000D+02  .389687500000D+02  .440089760076D-08  .169824176926D+01
     .157207250595D-05  .211302505340D-01  .509619712830D-05  .515365608597D+04
     .590384000000D+06 -.284984707832D-06  .284813200811D+01 -.428408384323D-06
     .980478826159D+00  .292875000000D+03  .121613613316D+01 -.812033824468D-08
    -.617882880159D-10  .100000000000D+01  .172500000000D+04  .000000000000D+00
     .240000000000D+01  .000000000000D+00 -.605359673500D-08  .160000000000D+02
     .583206000000D+06  .400000000000D+01
30 13  2  2 19 59 44.0 -.235680956393D-03  .864019966684D-11  .000000000000D+00
     .410000000000D+02 -.152812500000D+02  .420160358508D-08  .289926069947D+01
    -.787898898125D-06  .108311693184D-01  .959448516369D-05  .515362175751D+04
     .590384000000D+06  .726431608200D-07 -.153253999352D+01  .372529029846D-07
     .962511241439D+00  .194000000000D+03  .161220727175D+01 -.776246619502D-08
     .199294015681D-09  .100000000000D+01  .172500000000D+04  .000000000000D+00
     .485000000000D+01  .000000000000D+00 -.419095158577D-08  .410000000000D+02
     .583206000000D+06  .400000000000D+01
 1 13  2  2 20  0  0.0  .297437887639D-03  .250111042988D-11  .000000000000D+00
     .640000000000D+02 -.264375000000D+02  .460733477113D-08  .626711239302D+00
    -.146403908730D-05  .158052844927D-02  .963732600212D-05  .515370635223D+04
     .590400000000D+06  .540167093277D-07  .662242656516D+00  .558793544769D-08
     .960358990510D+00  .194593750000D+03  .443188912346D+00 -.801819113270D-08
    -.249653256203D-09  .100000000000D+01  .172500000000D+04  .000000000000D+00
     .240000000000D+01  .000000000000D+00  .838190317154D-08  .640000000000D+02
     .583206000000D+06  .400000000000D+01
 2 13  2  2 20  0  0.0  .416974537075D-03  .136424205266D-11  .000000000000D+00
     .160000000000D+02 -.341562500000D+02  .514057126828D-08  .156757544639D+01
    -.173598527908D-05  .119611331029D-01  .916980206966D-05  .515360262299D+04
     .590400000000D+06 -.143423676491D-06  .643071226269D+00  .137835741043D-06
     .938885448005D+00  .190031250000D+03 -.267724173885D+01 -.839499254228D-08
    -.309655755548D-09  .100000000000D+01  .172500000000D+04  .000000000000D+00
     .240000000000D+01  .000000000000D+00 -.176951289177D-07  .160000000000D+02
     .583206000000D+06  .400000000000D+01
 3 13  2  2 20  0  0.0  .163206364959D-03  .511590769747D-11  .000000000000D+00
     .550000000000D+02 -.174687500000D+02  .536486632536D-08  .172713881641D+01
    -.112876296043D-05  .159579144092D-01  .587105751038D-05  .515366896057D+04
     .590400000000D+06 -.987201929092D-07 -.524488400464D+00 -.393018126488D-06
     .933563837721D+00  .253812500000D+03  .126784245187D+01 -.855571352267D-08
     .292512184307D-09  .100000000000D+01  .172500000000D+04  .000000000000D+00
     .240000000000D+01  .000000000000D+00 -.465661287308D-08  .550000000000D+02
     .583206000000D+06  .400000000000D+01
 4 13  2  2 20  0  0.0  .123131554574D-03  .110276232590D-10  .000000000000D+00
     .700000000000D+02 -.294062500000D+02  .509342644737D-08 -.146010155527D+01
    -.137835741043D-05  .103797700722D-01  .871531665325D-05  .515373850632D+04
     .590400000000D+06  .227242708206D-06  .659639560567D+00  .111758708954D-07
     .937915821513D+00  .191718750000D+03  .956869218449D+00 -.824177187431D-08
    -.150006248362D-09  .100000000000D+01  .172500000000D+04  .000000000000D+00
     .240000000000D+01  .000000000000D+00 -.605359673500D-08  .700000000000D+02
     .583206000000D+06  .400000000000D+01
 5 13  2  2 20  0  0.0 -.381818506867D-03 -.193267624127D-11  .000000000000D+00
     .250000000000D+02  .595937500000D+02  .488413201513D-08 -.267011040820D+01
     .305101275444D-05  .308814097662D-02  .975281000137D-05  .515355334473D+04
     .590400000000D+06 -.465661287308D-07  .170780275375D+01 -.633299350739D-07
     .948976014694D+00  .187656250000D+03  .318163012035D+00 -.811748098281D-08
     .757174396496D-10  .100000000000D+01  .172500000000D+04  .000000000000D+00
     .240000000000D+01  .000000000000D+00 -.102445483208D-07  .250000000000D+02
     .583206000000D+06  .400000000000D+01
 6 13  2  2 20  0  0.0  .365527812392D-03 -.142108547152D-10  .000000000000D+00
     .720000000000D+02 -.160312500000D+02  .516664378288D-08 -.266645822005D+01
    -.627711415291D-06  .767412246205D-02  .587478280067D-05  .515368038750D+04
     .590400000000D+06 -.726431608200D-07 -.445895754057D+00  .651925802231D-07
     .940309772842D+00  .256406250000D+03 -.388343234340D+00 -.838070623291D-08
     .258582199558D-09  .100000000000D+01  .172500000000D+04  .000000000000D+00
     .240000000000D+01  .000000000000D+00 -.512227416039D-08  .720000000000D+02
     .583206000000D+06  .400000000000D+01
 7 13  2  2 20  0  0.0  .176142435521D-03  .432009983342D-11  .000000000000D+00
     .590000000000D+02 -.567812500000D+02  .421338979031D-08  .168857816692D+00
    -.306963920593D-05  .605977908708D-02  .687688589096D-05  .515371227646D+04
     .590400000000D+06  .800937414169D-07 -.246046082224D+01  .502914190292D-07
     .975891668045D+00  .252343750000D+03 -.292462313905D+01 -.816676875013D-08
    -.359300680601D-09  .100000000000D+01  .172500000000D+04  .000000000000D+00
     .240000000000D+01  .000000000000D+00 -.107102096081D-07  .590000000000D+02
     .583206000000D+06  .400000000000D+01
 8 13  2  2 20  0  0.0  .444008037448D-05  .227373675443D-12  .000000000000D+00
     .770000000000D+02 -.540000000000D+02  .365443793629D-08 -.406664770626D+00
    -.291503965855D-05  .127107769949D-01  .735558569431D-05  .515360963249D+04
     .590400000000D+06  .245869159698D-06 -.237172181491D+01  .838190317154D-07
     .998408442302D+00  .256375000000D+03 -.288345408467D+01 -.791997275580D-08
    -.324656380384D-09  .100000000000D+01  .172500000000D+04  .000000000000D+00
     .340000000000D+01  .000000000000D+00 -.419095158577D-08  .770000000000D+02
     .583206000000D+06  .400000000000D+01
 9 13  2  2 20  0  0.0  .218023546040D-03  .261479726760D-11  .000000000000D+00
     .770000000000D+02 -.395000000000D+02  .409017037201D-08  .141689575905D+00
    -.208616256714D-05  .170907453867D-01  .679492950439D-05  .515282484055D+04
     .590400000000D+06 -.251457095146D-06 -.248443842114D+01 -.931322574615D-07
     .984565026994D+00  .264500000000D+03  .163664273914D+01 -.824070040111D-08
    -.271082720255D-09  .100000000000D+01  .172500000000D+04  .000000000000D+00
     .240000000000D+01  .000000000000D+00 -.558793544769D-08  .770000000000D+02
     .583206000000D+06  .400000000000D+01
11 13  2  2 20  0  0.0 -.349672511220D-03 -.363797880709D-11  .000000000000D+00
     .290000000000D+02 -.405937500000D+02  .647276961684D-08  .372376293962D+00
    -.216625630856D-05  .138242673129D-01  .757351517677D-05  .515367953873D+04
     .590400000000D+06 -.191852450371D-06  .373803597300D+00  .108033418655D-06
     .888943284147D+00  .197250000000D+03  .114272907784D+01 -.919216860500D-08
    -.246795994329D-09  .100000000000D+01  .172500000000D+04  .000000000000D+00
     .240000000000D+01  .000000000000D+00 -.116415321827D-07  .290000000000D+02
     .583206000000D+06  .400000000000D+01
12 13  2  2 20  0  0.0  .115740112960D-03  .204636307899D-11  .000000000000D+00
     .660000000000D+02 -.167812500000D+02  .395730769489D-08 -.963813235604D-01
    -.981613993645D-06  .424237130210D-02  .836513936520D-05  .515363409424D+04
     .590400000000D+06  .782310962677D-07 -.140234002260D+01  .000000000000D+00
     .982575875338D+00  .230250000000D+03  .143403377121D+00 -.788854287519D-08
     .193222334200D-09  .100000000000D+01  .172500000000D+04  .000000000000D+00
     .240000000000D+01  .000000000000D+00 -.121071934700D-07  .660000000000D+02
     .583206000000D+06  .400000000000D+01
13 13  2  2 20  0  0.0  .147769227624D-03 -.295585778076D-11  .000000000000D+00
     .770000000000D+02  .347500000000D+02  .438553981819D-08  .263128235337D+01
     .193342566490D-05  .494835909922D-02  .415742397308D-05  .515355817986D+04
     .590400000000D+06  .109896063805D-06  .285508467550D+01 -.745058059692D-08
     .983003334149D+00  .310000000000D+03  .206505235921D+01 -.816962601200D-08
    -.953611150304D-10  .100000000000D+01  .172500000000D+04  .000000000000D+00
     .240000000000D+01  .000000000000D+00 -.111758708954D-07  .770000000000D+02
     .583206000000D+06  .400000000000D+01
